[{"OBJECT_NAME":"JILIN-1 GAOFEN 03D50","OBJECT_ID":"2022-167J","EPOCH":"2026-03-09T22:35:59.947584","MEAN_MOTION":15.32279726,"ECCENTRICITY":0.00065764,"INCLINATION":97.6731,"RA_OF_ASC_NODE":232.9458,"ARG_OF_PERICENTER":101.1473,"MEAN_ANOMALY":259.0507,"EPHEMERIS_TYPE":0,"CLASSIFICATION_TYPE":"U","NORAD_CAT_ID":54690,"ELEMENT_SET_NO":999,"REV_AT_EPOCH":18014,"BSTAR":0.00049467973,"MEAN_MOTION_DOT":0.00015359,"MEAN_MOTION_DDOT":0},{"OBJECT_NAME":"STARLINK-36043","OBJECT_ID":"2025-283Z","EPOCH":"2026-03-09T07:10:05.878560","MEAN_MOTION":15.30191817,"ECCENTRICITY":0.00011383,"INCLINATION":53.1604,"RA_OF_ASC_NODE":26.0249,"ARG_OF_PERICENTER":71.091,"MEAN_ANOMALY":289.0214,"EPHEMERIS_TYPE":0,"CLASSIFICATION_TYPE":"U","NORAD_CAT_ID":66901,"ELEMENT_SET_NO":999,"REV_AT_EPOCH":1578,"BSTAR":0.00094930961,"MEAN_MOTION_DOT":0.00027855,"MEAN_MOTION_DDOT":0}]
